{
  "type": "FeatureCollection",
  "features": [
    {
      "type": "Feature",
      "properties": {
        "norad_id": 30539,
        "name": "FENGYUN 1C DEB",
        "group": "fengyun-1c-debris",
        "lat": 33.624448331625416,
        "lon": -23.014678514827448,
        "alt_km": 784.0810675893435,
        "timestamp": "2025-12-27T13:34:49.572322+00:00",
        "meta_object_name": "FENGYUN 1C DEB",
        "meta_object_id": "1999-025AKD",
        "meta_epoch": "2025-12-26T20:55:20.338752",
        "meta_mean_motion": 14.55484339,
        "meta_eccentricity": 0.0115349,
        "meta_inclination": 98.882,
        "meta_ra_of_asc_node": 342.2166,
        "meta_arg_of_pericenter": 232.4582,
        "meta_mean_anomaly": 126.6089,
        "meta_ephemeris_type": 0,
        "meta_classification_type": "U",
        "meta_norad_cat_id": 30539,
        "meta_element_set_no": 999,
        "meta_rev_at_epoch": 99571,
        "meta_bstar": 0.00068299,
        "meta_mean_motion_dot": 3.193e-05,
        "meta_mean_motion_ddot": 0,
        "tle_line1": "1 30539U 99025AKD 25360.87176318  .00003193  00000+0  68299-3 0  9994",
        "tle_line2": "2 30539  98.8820 342.2166 0115349 232.4582 126.6089 14.55484339995719"
      },
      "geometry": {
        "type": "Point",
        "coordinates": [
          -23.014678514827448,
          33.624448331625416
        ]
      }
    },
    {
      "type": "Feature",
      "properties": {
        "norad_id": 30540,
        "name": "FENGYUN 1C DEB",
        "group": "fengyun-1c-debris",
        "lat": 80.9564794003028,
        "lon": 9.37876954629306,
        "alt_km": 766.1312166870448,
        "timestamp": "2025-12-27T13:34:49.572332+00:00",
        "meta_object_name": "FENGYUN 1C DEB",
        "meta_object_id": "1999-025AKE",
        "meta_epoch": "2025-12-27T06:42:26.726400",
        "meta_mean_motion": 14.32416412,
        "meta_eccentricity": 0.00504585,
        "meta_inclination": 98.8779,
        "meta_ra_of_asc_node": 109.9672,
        "meta_arg_of_pericenter": 18.4296,
        "meta_mean_anomaly": 36.7958,
        "meta_ephemeris_type": 0,
        "meta_classification_type": "U",
        "meta_norad_cat_id": 30540,
        "meta_element_set_no": 999,
        "meta_rev_at_epoch": 97494,
        "meta_bstar": 0.001975669,
        "meta_mean_motion_dot": 5.378e-05,
        "meta_mean_motion_ddot": 0,
        "tle_line1": "1 30540U 99025AKE 25361.27947600  .00005378  00000+0  19757-2 0  9992",
        "tle_line2": "2 30540  98.8779 109.9672 0050458  18.4296  36.7958 14.32416412974947"
      },
      "geometry": {
        "type": "Point",
        "coordinates": [
          9.37876954629306,
          80.9564794003028
        ]
      }
    },
    {
      "type": "Feature",
      "properties": {
        "norad_id": 30541,
        "name": "FENGYUN 1C DEB",
        "group": "fengyun-1c-debris",
        "lat": -10.00670145429808,
        "lon": 49.467495178723574,
        "alt_km": 811.4263156707866,
        "timestamp": "2025-12-27T13:34:49.572342+00:00",
        "meta_object_name": "FENGYUN 1C DEB",
        "meta_object_id": "1999-025AKF",
        "meta_epoch": "2025-12-27T01:48:57.966624",
        "meta_mean_motion": 14.23122329,
        "meta_eccentricity": 0.00174233,
        "meta_inclination": 98.6933,
        "meta_ra_of_asc_node": 47.4366,
        "meta_arg_of_pericenter": 44.7194,
        "meta_mean_anomaly": 315.5386,
        "meta_ephemeris_type": 0,
        "meta_classification_type": "U",
        "meta_norad_cat_id": 30541,
        "meta_element_set_no": 999,
        "meta_rev_at_epoch": 97531,
        "meta_bstar": 0.0012603082,
        "meta_mean_motion_dot": 2.807e-05,
        "meta_mean_motion_ddot": 0,
        "tle_line1": "1 30541U 99025AKF 25361.07567091  .00002807  00000+0  12603-2 0  9990",
        "tle_line2": "2 30541  98.6933  47.4366 0017423  44.7194 315.5386 14.23122329975314"
      },
      "geometry": {
        "type": "Point",
        "coordinates": [
          49.467495178723574,
          -10.00670145429808
        ]
      }
    },
    {
      "type": "Feature",
      "properties": {
        "norad_id": 30542,
        "name": "FENGYUN 1C DEB",
        "group": "fengyun-1c-debris",
        "lat": 75.80026141919001,
        "lon": -7.782354113455738,
        "alt_km": 879.0304343476755,
        "timestamp": "2025-12-27T13:34:49.572352+00:00",
        "meta_object_name": "FENGYUN 1C DEB",
        "meta_object_id": "1999-025AKG",
        "meta_epoch": "2025-12-27T01:31:22.321920",
        "meta_mean_motion": 14.0698183,
        "meta_eccentricity": 0.00270831,
        "meta_inclination": 98.7857,
        "meta_ra_of_asc_node": 29.4046,
        "meta_arg_of_pericenter": 292.85,
        "meta_mean_anomaly": 122.5034,
        "meta_ephemeris_type": 0,
        "meta_classification_type": "U",
        "meta_norad_cat_id": 30542,
        "meta_element_set_no": 999,
        "meta_rev_at_epoch": 97120,
        "meta_bstar": 9.286728e-05,
        "meta_mean_motion_dot": 1.12e-06,
        "meta_mean_motion_ddot": 0,
        "tle_line1": "1 30542U 99025AKG 25361.06345280  .00000112  00000+0  92867-4 0  9993",
        "tle_line2": "2 30542  98.7857  29.4046 0027083 292.8500 122.5034 14.06981830971207"
      },
      "geometry": {
        "type": "Point",
        "coordinates": [
          -7.782354113455738,
          75.80026141919001
        ]
      }
    },
    {
      "type": "Feature",
      "properties": {
        "norad_id": 30543,
        "name": "FENGYUN 1C DEB",
        "group": "fengyun-1c-debris",
        "lat": -17.74580462597883,
        "lon": 13.563742413906246,
        "alt_km": 834.2718888167456,
        "timestamp": "2025-12-27T13:34:49.572363+00:00",
        "meta_object_name": "FENGYUN 1C DEB",
        "meta_object_id": "1999-025AKH",
        "meta_epoch": "2025-12-27T06:54:51.498720",
        "meta_mean_motion": 14.0375276,
        "meta_eccentricity": 0.00719932,
        "meta_inclination": 98.8329,
        "meta_ra_of_asc_node": 10.4416,
        "meta_arg_of_pericenter": 353.1934,
        "meta_mean_anomaly": 26.2375,
        "meta_ephemeris_type": 0,
        "meta_classification_type": "U",
        "meta_norad_cat_id": 30543,
        "meta_element_set_no": 999,
        "meta_rev_at_epoch": 96709,
        "meta_bstar": 0.00016560395,
        "meta_mean_motion_dot": 2.24e-06,
        "meta_mean_motion_ddot": 0,
        "tle_line1": "1 30543U 99025AKH 25361.28809605  .00000224  00000+0  16560-3 0  9993",
        "tle_line2": "2 30543  98.8329  10.4416 0071993 353.1934  26.2375 14.03752760967090"
      },
      "geometry": {
        "type": "Point",
        "coordinates": [
          13.563742413906246,
          -17.74580462597883
        ]
      }
    },
    {
      "type": "Feature",
      "properties": {
        "norad_id": 30545,
        "name": "FENGYUN 1C DEB",
        "group": "fengyun-1c-debris",
        "lat": -40.964421551636974,
        "lon": 23.817789531734046,
        "alt_km": 1316.3017163499935,
        "timestamp": "2025-12-27T13:34:49.572395+00:00",
        "meta_object_name": "FENGYUN 1C DEB",
        "meta_object_id": "1999-025AKK",
        "meta_epoch": "2025-12-25T13:09:34.122240",
        "meta_mean_motion": 13.20792989,
        "meta_eccentricity": 0.0472559,
        "meta_inclination": 98.9978,
        "meta_ra_of_asc_node": 209.9845,
        "meta_arg_of_pericenter": 339.9155,
        "meta_mean_anomaly": 18.3905,
        "meta_ephemeris_type": 0,
        "meta_classification_type": "U",
        "meta_norad_cat_id": 30545,
        "meta_element_set_no": 999,
        "meta_rev_at_epoch": 91099,
        "meta_bstar": 0.0005625,
        "meta_mean_motion_dot": 3.74e-06,
        "meta_mean_motion_ddot": 0,
        "tle_line1": "1 30545U 99025AKK 25359.54831160  .00000374  00000+0  56250-3 0  9998",
        "tle_line2": "2 30545  98.9978 209.9845 0472559 339.9155  18.3905 13.20792989910997"
      },
      "geometry": {
        "type": "Point",
        "coordinates": [
          23.817789531734046,
          -40.964421551636974
        ]
      }
    },
    {
      "type": "Feature",
      "properties": {
        "norad_id": 30546,
        "name": "FENGYUN 1C DEB",
        "group": "fengyun-1c-debris",
        "lat": -40.859469443155966,
        "lon": 31.587893209222766,
        "alt_km": 630.0883532326225,
        "timestamp": "2025-12-27T13:34:49.572406+00:00",
        "meta_object_name": "FENGYUN 1C DEB",
        "meta_object_id": "1999-025AKL",
        "meta_epoch": "2025-12-27T01:58:25.345056",
        "meta_mean_motion": 14.87369978,
        "meta_eccentricity": 0.00929225,
        "meta_inclination": 98.9077,
        "meta_ra_of_asc_node": 218.8427,
        "meta_arg_of_pericenter": 116.8438,
        "meta_mean_anomaly": 35.513,
        "meta_ephemeris_type": 0,
        "meta_classification_type": "U",
        "meta_norad_cat_id": 30546,
        "meta_element_set_no": 999,
        "meta_rev_at_epoch": 670,
        "meta_bstar": 0.00086716866,
        "meta_mean_motion_dot": 8.419e-05,
        "meta_mean_motion_ddot": 0,
        "tle_line1": "1 30546U 99025AKL 25361.08223779  .00008419  00000+0  86717-3 0  9991",
        "tle_line2": "2 30546  98.9077 218.8427 0092922 116.8438  35.5130 14.87369978  6709"
      },
      "geometry": {
        "type": "Point",
        "coordinates": [
          31.587893209222766,
          -40.859469443155966
        ]
      }
    }
  ]
}